NORAD_CAT_ID,OBJECT_NAME,OBJECT_TYPE,EPOCH,MEAN_MOTION,ECCENTRICITY,INCLINATION,RA_OF_ASC_NODE,ARG_OF_PERICENTER,MEAN_ANOMALY,BSTAR,MEAN_MOTION_DOT,MEAN_MOTION_DDOT,TLE_LINE0,TLE_LINE1,TLE_LINE2,SEMIMAJOR_AXIS,PERIOD,APOGEE,PERIGEE,DECAYED
51718.0,STARLINK-3546,PAYLOAD,2024-07-29 20:15:37,15.08833166,0.0001926,53.2184,88.0581,79.3014,280.8195,9.1737e-05,1.172e-05,0.0,0 STARLINK-3546,1 51718U 22016E   24211.84418435  .00001172  00000-0  91737-4 0  9992,2 51718  53.2184  88.0581 0001926  79.3014 280.8195 15.08833166135743,6917.901,95.438,541.099,538.434,0.0
51718.0,STARLINK-3546,PAYLOAD,2024-07-29 21:51:00,15.08842422,0.0002081,53.2174,87.7619,95.8724,264.2505,1.4357e-05,-6e-07,0.0,0 STARLINK-3546,1 51718U 22016E   24211.91042064 -.00000060  00000-0  14357-4 0  9990,2 51718  53.2174  87.7619 0002081  95.8724 264.2505 15.08842422135818,6917.873,95.437,541.178,538.298,0.0
51718.0,STARLINK-3546,PAYLOAD,2024-07-30 08:58:42,15.08842584,0.0001602,53.2169,85.684,87.1798,272.9377,0.00015211,2.134e-05,0.0,0 STARLINK-3546,1 51718U 22016E   24212.37409726  .00002134  00000-0  15211-3 0  9995,2 51718  53.2169  85.6840 0001602  87.1798 272.9377 15.08842584135821,6917.872,95.437,540.846,538.629,0.0
51718.0,STARLINK-3546,PAYLOAD,2024-07-30 21:41:46,15.08853852,0.0001584,53.2155,83.3054,86.3249,273.7924,0.00020837,3.031e-05,0.0,0 STARLINK-3546,1 51718U 22016E   24212.90400850  .00003031  00000-0  20837-3 0  9990,2 51718  53.2155  83.3054 0001584  86.3249 273.7924 15.08853852135905,6917.838,95.437,540.799,538.607,0.0
51718.0,STARLINK-3546,PAYLOAD,2024-07-31 08:49:29,15.08841871,0.0001422,53.216,81.2271,71.5853,288.5294,4.5623e-05,4.38e-06,0.0,0 STARLINK-3546,1 51718U 22016E   24213.36769704  .00000438  00000-0  45623-4 0  9996,2 51718  53.2160  81.2271 0001422  71.5853 288.5294 15.08841871135976,6917.875,95.437,540.723,538.756,0.0
51718.0,STARLINK-3546,PAYLOAD,2024-07-31 15:11:02,15.0883238,0.000205,53.2183,80.0312,93.4063,266.7163,4.0999e-05,3.64e-06,0.0,0 STARLINK-3546,1 51718U 22016E   24213.63266740  .00000364  00000-0  40999-4 0  9997,2 51718  53.2183  80.0312 0002050  93.4063 266.7163 15.08832380136078,6917.904,95.438,541.187,538.351,0.0
51718.0,STARLINK-3546,PAYLOAD,2024-07-31 21:32:35,15.08833899,0.0001564,53.2175,78.8437,92.3362,267.7809,-1.3947e-05,-5.1e-06,0.0,0 STARLINK-3546,1 51718U 22016E   24213.89762833 -.00000510  00000-0 -13947-4 0  9997,2 51718  53.2175  78.8437 0001564  92.3362 267.7809 15.08833899136053,6917.899,95.438,540.846,538.682,0.0
51718.0,STARLINK-3546,PAYLOAD,2024-08-01 21:23:20,15.08860751,0.0001561,53.2183,74.3825,102.8376,257.279,0.00023955,3.529e-05,0.0,0 STARLINK-3546,1 51718U 22016E   24214.89120798  .00003529  00000-0  23955-3 0  9996,2 51718  53.2183  74.3825 0001561 102.8376 257.2790 15.08860751136200,6917.817,95.436,540.762,538.602,0.0
51718.0,STARLINK-3546,PAYLOAD,2024-08-02 14:52:35,15.08840344,0.0001468,53.217,71.1111,96.5055,263.6104,0.00022074,3.227e-05,0.0,0 STARLINK-3546,1 51718U 22016E   24215.61986052  .00003227  00000-0  22074-3 0  9996,2 51718  53.2170  71.1111 0001468  96.5055 263.6104 15.08840344136372,6917.879,95.438,540.76,538.729,0.0
51718.0,STARLINK-3546,PAYLOAD,2024-08-02 21:14:08,15.08836314,0.0001455,53.2162,69.9224,91.8391,268.2768,0.00011796,1.59e-05,0.0,0 STARLINK-3546,1 51718U 22016E   24215.88482303  .00001590  00000-0  11796-3 0  9995,2 51718  53.2162  69.9224 0001455  91.8391 268.2768 15.08836314136357,6917.892,95.438,540.763,538.75,0.0
51718.0,STARLINK-3546,PAYLOAD,2024-08-03 06:46:27,15.08839428,0.0001245,53.2163,68.1365,120.226,239.8856,4.1416e-05,3.71e-06,0.0,0 STARLINK-3546,1 51718U 22016E   24216.28225748  .00000371  00000-0  41416-4 0  9997,2 51718  53.2163  68.1365 0001245 120.2260 239.8856 15.08839428136478,6917.882,95.438,540.608,538.886,0.0
51718.0,STARLINK-3546,PAYLOAD,2024-08-03 21:04:54,15.08857516,0.0001428,53.2176,65.4606,89.6792,270.4364,-1.0767e-05,-4.59e-06,0.0,0 STARLINK-3546,1 51718U 22016E   24216.87840941 -.00000459  00000-0 -10767-4 0  9994,2 51718  53.2176  65.4606 0001428  89.6792 270.4364 15.08857516136508,6917.827,95.436,540.68,538.704,0.0
51718.0,STARLINK-3546,PAYLOAD,2024-08-04 06:37:13,15.08850554,0.0001425,53.2164,63.677,87.4828,272.6327,3.7838e-05,3.14e-06,0.0,0 STARLINK-3546,1 51718U 22016E   24217.27584939  .00000314  00000-0  37838-4 0  9997,2 51718  53.2164  63.6770 0001425  87.4828 272.6327 15.08850554136564,6917.848,95.437,540.699,538.727,0.0
51718.0,STARLINK-3546,PAYLOAD,2024-08-04 14:34:10,15.08828273,0.0001578,53.2165,62.1902,80.4368,279.6803,-2.3323e-05,-6.59e-06,0.0,0 STARLINK-3546,1 51718U 22016E   24217.60706323 -.00000659  00000-0 -23323-4 0  9995,2 51718  53.2165  62.1902 0001578  80.4368 279.6803 15.08828273136678,6917.916,95.438,540.873,538.69,0.0
51718.0,STARLINK-3546,PAYLOAD,2024-08-04 20:55:42,15.088407,0.0001675,53.2176,61.0062,100.8508,259.2672,0.00016813,2.389e-05,0.0,0 STARLINK-3546,1 51718U 22016E   24217.87201842  .00002389  00000-0  16813-3 0  9995,2 51718  53.2176  61.0062 0001675 100.8508 259.2672 15.08840700136651,6917.878,95.438,540.902,538.585,0.0
51718.0,STARLINK-3546,PAYLOAD,2024-08-05 00:06:28,15.0885097,0.0001491,53.2167,60.4054,76.5219,283.5939,0.00029258,4.373e-05,0.0,0 STARLINK-3546,1 51718U 22016E   24218.00449323  .00004373  00000-0  29258-3 0  9991,2 51718  53.2167  60.4054 0001491  76.5219 283.5939 15.08850970136677,6917.847,95.437,540.743,538.68,0.0
51718.0,STARLINK-3546,PAYLOAD,2024-08-05 19:11:05,15.08846417,0.0001627,53.2167,56.8355,86.0116,274.1063,3.2334e-05,2.27e-06,0.0,0 STARLINK-3546,1 51718U 22016E   24218.79937482  .00000227  00000-0  32334-4 0  9999,2 51718  53.2167  56.8355 0001627  86.0116 274.1063 15.08846417136791,6917.861,95.437,540.851,538.6,0.0
51718.0,STARLINK-3546,PAYLOAD,2024-08-06 12:40:21,15.08835195,0.0001754,53.2162,53.5678,89.0762,271.0431,0.00013669,1.888e-05,0.0,0 STARLINK-3546,1 51718U 22016E   24219.52802155  .00001888  00000-0  13669-3 0  9992,2 51718  53.2162  53.5678 0001754  89.0762 271.0431 15.08835195136908,6917.895,95.438,540.973,538.547,0.0
51718.0,STARLINK-3546,PAYLOAD,2024-08-06 20:37:15,15.08863788,0.0001275,53.2171,52.079,93.1949,266.9189,0.00042451,6.479e-05,0.0,0 STARLINK-3546,1 51718U 22016E   24219.85920621  .00006479  00000-0  42451-3 0  9999,2 51718  53.2171  52.0790 0001275  93.1949 266.9189 15.08863788136955,6917.808,95.436,540.555,538.791,0.0
51718.0,STARLINK-3546,PAYLOAD,2024-08-07 18:52:40,15.08839982,0.0001492,53.2176,47.9181,98.1033,262.0128,8.753e-05,1.105e-05,0.0,0 STARLINK-3546,1 51718U 22016E   24220.78658011  .00001105  00000-0  87530-4 0  9993,2 51718  53.2176  47.9181 0001492  98.1033 262.0128 15.08839982137092,6917.88,95.438,540.778,538.713,0.0
51718.0,STARLINK-3546,PAYLOAD,2024-08-08 17:08:04,15.08840673,0.0001433,53.2178,43.7574,89.9109,270.2047,0.00015342,2.155e-05,0.0,0 STARLINK-3546,1 51718U 22016E   24221.71394375  .00002155  00000-0  15342-3 0  9994,2 51718  53.2178  43.7574 0001433  89.9109 270.2047 15.08840673137293,6917.878,95.438,540.735,538.752,0.0
51718.0,STARLINK-3546,PAYLOAD,2024-08-09 12:12:42,15.08842721,0.0001396,53.2182,40.1858,93.4043,266.7109,0.00018631,2.679e-05,0.0,0 STARLINK-3546,1 51718U 22016E   24222.50882263  .00002679  00000-0  18631-3 0  9995,2 51718  53.2182  40.1858 0001396  93.4043 266.7109 15.08842721137351,6917.872,95.437,540.703,538.771,0.0
51718.0,STARLINK-3546,PAYLOAD,2024-08-09 18:34:14,15.08847632,0.0001162,53.2168,38.9987,89.8287,270.2838,0.00027308,4.062e-05,0.0,0 STARLINK-3546,1 51718U 22016E   24222.77377974  .00004062  00000-0  27308-3 0  9991,2 51718  53.2168  38.9987 0001162  89.8287 270.2838 15.08847632137459,6917.857,95.437,540.526,538.918,0.0
51718.0,STARLINK-3546,PAYLOAD,2024-08-10 12:03:29,15.08844176,0.0001178,53.2174,35.7299,87.337,272.7757,9.5556e-06,-1.36e-06,0.0,0 STARLINK-3546,1 51718U 22016E   24223.50242136 -.00000136  00000-0  95556-5 0  9995,2 51718  53.2174  35.7299 0001178  87.3370 272.7757 15.08844176137569,6917.868,95.437,540.548,538.918,0.0
51718.0,STARLINK-3546,PAYLOAD,2024-08-10 16:49:38,15.08847826,0.0001285,53.2181,34.8368,94.6029,265.511,0.00013764,1.904e-05,0.0,0 STARLINK-3546,1 51718U 22016E   24223.70113896  .00001904  00000-0  13764-3 0  9999,2 51718  53.2181  34.8368 0001285  94.6029 265.5110 15.08847826137530,6917.856,95.437,540.61,538.833,0.0
51718.0,STARLINK-3546,PAYLOAD,2024-08-11 11:54:16,15.08837194,0.0001799,53.2172,31.2669,98.771,261.3486,-7.2455e-05,-1.441e-05,0.0,0 STARLINK-3546,1 51718U 22016E   24224.49602162 -.00001441  00000-0 -72455-4 0  9996,2 51718  53.2172  31.2669 0001799  98.7710 261.3486 15.08837194137657,6917.889,95.438,540.998,538.509,0.0
51718.0,STARLINK-3546,PAYLOAD,2024-08-12 03:48:06,15.08852618,7.79e-05,53.2177,28.29,30.5332,329.5705,0.00028539,4.259e-05,0.0,0 STARLINK-3546,1 51718U 22016E   24225.15841295  .00004259  00000-0  28539-3 0  9993,2 51718  53.2177  28.2900 0000779  30.5332 329.5705 15.08852618137757,6917.842,95.437,540.246,539.168,0.0
51718.0,STARLINK-3546,PAYLOAD,2024-08-12 11:45:03,15.08837182,0.0001362,53.2169,26.8053,61.5593,298.5537,5.0116e-06,-2.08e-06,0.0,0 STARLINK-3546,1 51718U 22016E   24225.48962192 -.00000208  00000-0  50116-5 0  9998,2 51718  53.2169  26.8053 0001362  61.5593 298.5537 15.08837182137806,6917.889,95.438,540.696,538.812,0.0
51718.0,STARLINK-3546,PAYLOAD,2024-08-12 19:41:57,15.08873617,0.0001312,53.2163,25.3162,67.3434,292.7697,0.00086708,0.00013551,0.0,0 STARLINK-3546,1 51718U 22016E   24225.82080903  .00013551  00000-0  86708-3 0  9995,2 51718  53.2163  25.3162 0001312  67.3434 292.7697 15.08873617137859,6917.778,95.435,540.55,538.735,0.0
51718.0,STARLINK-3546,PAYLOAD,2024-08-13 03:38:54,15.08831518,0.0001337,53.2174,23.8292,62.5022,297.6106,-0.0001901,-3.311e-05,0.0,0 STARLINK-3546,1 51718U 22016E   24226.15202123 -.00003311  00000-0 -19010-3 0  9999,2 51718  53.2174  23.8292 0001337  62.5022 297.6106 15.08831518137904,6917.906,95.438,540.696,538.846,0.0
